1 37673U 11024A   14043.14276228  .00000868  00000-0  14514-3 0  9998
2 37673 098.0127 052.1363 0001459 104.5031 299.2887 14.72304448143839
